AO-07
1 07530U 74089B   26146.99531800 -.00000025  00000+0  13128-3 0  9992
2 07530 101.9906 160.0208 0012341 169.8542 245.9406 12.53697708357863
PHASE 3B (AO-10)
1 14129U 83058B   26146.51822513  .00000118  00000+0  00000+0 0  9995
2 14129  25.8989 223.1592 6018314 109.7054 321.9164  2.05869340295046
UO-11
1 14781U 84021B   26146.87674454  .00001157  00000+0  12350-3 0  9997
2 14781  97.8045 112.6924 0006104 251.5908 108.4647 14.90723747253950
AO-27
1 22825U 93061C   26146.74296626  .00000088  00000+0  50440-4 0  9991
2 22825  98.6888 214.1633 0008864 156.4892 203.6697 14.30935496703938
FO-29
1 24278U 96046B   26146.57401575 -.00000006  00000+0  28131-4 0  9996
2 24278  98.5262 358.4047 0350350 152.3898 209.6342 13.53273246470249
GO-32
1 25397U 98043D   26146.92121671  .00000072  00000+0  51471-4 0  9998
2 25397  99.0063 139.1445 0000288 317.0557  43.0598 14.24423663448301
ISS
1 25544U 98067A   26146.77668714  .00011632  00000+0  21582-3 0  9998
2 25544  51.6334  46.0936 0007421 101.1111 259.0712 15.49400906568432
NO-44
1 26931U 01043C   26146.85641096  .00000156  00000+0  88999-4 0  9995
2 26931  67.0509 299.4420 0006169 263.9323  96.1076 14.31946804287398
SO-50
1 27607U 02058C   26146.57659473  .00000868  00000+0  11988-3 0  9993
2 27607  64.5512 195.8458 0075593 266.4290  92.8168 14.82993695261251
CO-55
1 27844U 03031E   26146.96267152  .00000305  00000+0  15112-3 0  9999
2 27844  98.6739 155.7887 0008400 243.9015 116.1300 14.24320752188656
RS-22
1 27939U 03042A   26146.97414809  .00001372  00000+0  21966-3 0  9999
2 27939  98.3473 330.7350 0010916 342.9286 170.7247 14.73424590212426
CO-65
1 32785U 08021C   26146.90164121  .00006164  00000+0  39132-3 0  9996
2 32785  97.8260 127.8825 0010595  99.7896 260.4529 15.09211331981989
CO-66
1 32791U 08021J   26146.97822088  .00019493  00000+0  63427-3 0  9996
2 32791  97.7518 143.8769 0004026  55.8538 304.3084 15.31912449984041
RS-30
1 32953U 08025A   26146.93273575 -.00000019  00000+0 -21086-3 0  9998
2 32953  82.5061   8.6628 0019768   0.9337 359.1777 12.43178174817057
SRMSAT
1 37841U 11058D   26146.15930402  .00000387  00000+0  66327-4 0  9996
2 37841  19.9702 192.8027 0011670 322.7286  67.7002 14.11570317754702
ZACUBE-1
1 39417U 13066B   26146.87654641  .00005020  00000+0  39143-3 0  9999
2 39417  97.8104 109.0975 0040270 323.3448  36.5021 15.01005545677537
TRITON-1
1 39427U 13066M   26146.95520301  .00002812  00000+0  34108-3 0  9996
2 39427  97.8254  57.2451 0088950 304.3039  54.9777 14.81604578670947
GOMX-1
1 39430U 13066Q   26146.94003601  .00002791  00000+0  42270-3 0  9993
2 39430  97.6503 348.7435 0129494 145.1619 215.8151 14.69363205666797
LO-74
1 39440U 13066AA  26146.82724994  .00003580  00000+0  33355-3 0  9997
2 39440  97.8895  95.7200 0059535  97.9174 262.8809 14.93565666673805
AO-73
1 39444U 13066AE  26146.84201728  .00007745  00000+0  48499-3 0  9990
2 39444  97.8263 117.8481 0034359 276.9262  82.8058 15.09178745676444
DTUSAT-2
1 40030U 14033W   26146.96869315  .00007385  00000+0  40261-3 0  9992
2 40030  98.0863 143.3543 0006492 317.4396  42.6331 15.14696720649470
METEOR-M-2
1 40069U 14037A   26146.95815062 -.00000102  00000+0 -27287-4 0  9993
2 40069  98.5101 123.4499 0006978  95.8802 264.3171 14.21454334616300
LILACSAT-2
1 40908U 15049K   26146.91823153  .00018761  00000+0  32841-3 0  9994
2 40908  97.4675 182.9608 0006003 346.7490  13.3603 15.50645642592456
Horyu-4
1 41340U 16012D   26146.57465557  .00211782  00000+0  95350-3 0  9990
2 41340  30.9871 236.0581 0003001 132.9569 227.1341 15.82369741567370
Lapan A3
1 41603U 16040E   26146.97758179  .00003862  00000+0  12345-3 0  9993
2 41603  97.1483 143.8236 0012250  91.7912 268.4734 15.32950891551563
TechnoSat
1 42829U 17042E   26146.97181270  .00003689  00000+0  26458-3 0  9996
2 42829  97.4268 305.4429 0018343 161.4973 198.6925 15.04810190483510
NOAA 20
1 43011U 17072B   26146.95048582  .00000294  00000+0  13528-3 0  9992
2 43011  98.9561 164.8901 0009276 210.2717 149.7929 14.28782365444326
AO-91
1 43017U 17073E   26146.37659269  .00011834  00000+0  51636-3 0  9999
2 43017  97.4741  14.0420 0152958  44.4475 316.8911 15.12266190462091
S-Net D
1 43186U 18014G   26146.68836437  .00005486  00000+0  28528-3 0  9990
2 43186  97.5382  51.6147 0010115  92.6073 267.6318 15.16431954455508
S-Net B
1 43187U 18014H   26146.69939796  .00005160  00000+0  26873-3 0  9994
2 43187  97.5387  51.6116 0010758  88.7063 271.5402 15.16402089455503
S-Net A
1 43188U 18014J   26146.68735362  .00005575  00000+0  28974-3 0  9991
2 43188  97.5397  51.8042 0010648  89.3253 270.9200 15.16439401455508
S-Net C
1 43189U 18014K   26146.70316180  .00005093  00000+0  26524-3 0  9992
2 43189  97.5416  51.8915 0011996  83.0796 277.1801 15.16393530454057
Ten-Koh
1 43677U 18084G   26146.75162137  .00002845  00000+0  21723-3 0  9995
2 43677  98.0758 338.2120 0009485 186.3607 173.7498 15.02822193412944
PO-101
1 43678U 18084H   26146.96240207  .00002874  00000+0  23407-3 0  9997
2 43678  98.1140 342.2558 0011620 242.5954 117.4087 15.00335700413036
QO-100
1 43700U 18090A   26146.94345448  .00000149  00000+0  00000+0 0  9994
2 43700   0.0149 281.1294 0001816 177.0060 151.8170  1.00273722 27460
MinXSS-2
1 43758U 18099A   26146.66966973  .00031982  00000+0  67151-3 0  9990
2 43758  97.4548 222.3485 0006210 351.1013   9.0125 15.45282933410807
AO-95
1 43770U 18099N   26146.70744673  .00011765  00000+0  45712-3 0  9996
2 43770  97.4401 207.0397 0010089  70.2286 290.0040 15.26169105409946
SNUSat 2
1 43782U 18099AA  26146.96152619  .00009787  00000+0  43768-3 0  9990
2 43782  97.4076 200.6753 0010405  20.1893 339.9752 15.21461061409801
SnugLite
1 43784U 18099AC  26146.71434713  .00011567  00000+0  44387-3 0  9990
2 43784  97.3888 201.2123 0003127  39.3674 320.7791 15.26629751410049
ITASat 1
1 43786U 18099AE  26146.67697791  .00007332  00000+0  35537-3 0  9996
2 43786  97.4047 198.6209 0014155  71.7044 288.5729 15.18732557409643
EAGLET 1
1 43790U 18099AJ  26146.62273109  .00004724  00000+0  27266-3 0  9991
2 43790  97.4251 196.8639 0012568  65.1123 295.1414 15.12744356409079
ESEO
1 43792U 18099AL  26146.89330614  .00001453  00000+0  10872-3 0  9998
2 43792  97.3991 185.1936 0013603  52.6717 307.5747 15.04173934408607
JO-97
1 43803U 18099AX  26146.68999262  .00016405  00000+0  51863-3 0  9996
2 43803  97.4148 209.4605 0004951   4.3444 355.7840 15.32861779410339
Suomi 100
1 43804U 18099AY  26146.66320521  .00012520  00000+0  46241-3 0  9999
2 43804  97.4206 207.1436 0009603   6.6110 353.5254 15.27841455410132
ISAT
1 43879U 18111D   26146.78369924  .00078175  00000+0  91562-3 0  9993
2 43879  97.5893  80.4225 0005887  57.6434 302.5392 15.61265786407824
UWE-4
1 43880U 18111E   26146.78307480  .00032142  00000+0  68969-3 0  9993
2 43880  97.5855  74.2106 0009641  54.6110 305.6037 15.44611892407478
Sparrow
1 43881U 18111F   26146.79799769  .00121445  00000+0  10724-2 0  9990
2 43881  97.6124  85.7086 0006569  91.9339 268.2674 15.68275192408013
Prox-1
1 44339U 19036A   26146.69891423  .00013156  00000+0  13007-2 0  9991
2 44339  23.9950 257.7346 0006421 137.6210 222.4786 14.90025660370262
Taurus 1
1 44530U 19059C   26146.96624271  .00007595  00000+0  12220-2 0  9990
2 44530  98.6399 310.4842 0008584  27.4447 332.7210 14.71830279355527
TO-108
1 44881U 19093C   26146.97562067  .00001118  00000+0  13234-3 0  9994
2 44881  97.7536 219.7249 0014157 150.8947 209.3060 14.86479588348263
RS-44
1 44909U 19096E   26146.66159159  .00000032  00000+0  82284-4 0  9994
2 44909  82.5225 354.0118 0217195 194.4451 165.0379 12.79748417299592
SALSAT
1 46495U 20068K   26146.95051506  .00008847  00000+0  31236-3 0  9998
2 46495  97.8852 148.7285 0010370  27.3279 332.8504 15.29438454312113
CSS (TIANHE-1)
1 48274U 21035A   26146.85522683  .00011014  00000+0  13679-3 0  9999
2 48274  41.4677  91.7295 0010859 287.6757  72.2896 15.59843934289839
CUTE
1 49263U 21088D   26146.77598200  .00286821  00000+0  13305-2 0  9990
2 49263  97.4187 244.1363 0004129 265.0573  95.0224 15.82671494259150
TeikyoSat 4
1 49396U 21102B   26146.97401929  .00002013  00000+0  12953-3 0  9995
2 49396  97.3683 177.2821 0012340  14.4804 345.6777 15.09420166249523
Z-Sat
1 49399U 21102E   26146.90891508  .00004663  00000+0  23143-3 0  9993
2 49399  97.3342 182.8792 0015612 326.8968  33.1287 15.18076719250217
KOSEN 1
1 49402U 21102H   26146.90540023  .00007879  00000+0  30405-3 0  9992
2 49402  97.3205 189.4794 0011882 283.8558  76.1359 15.26493394250776
HO-113
1 50466U 21131B   26146.95101992  .00000268  00000+0  96603-4 0  9997
2 50466  98.4965 239.4571 0004695 147.9446 212.2030 14.41332960232059
SNUGLITE 2
1 52899U 22065F   26146.84830086  .00001026  00000+0  20360-3 0  9996
2 52899  98.2176 291.7207 0008805  91.7719 268.4492 14.64300471207870
METEOR-M2-3
1 57166U 23091A   26146.94950604 -.00000006  00000+0  16181-4 0  9993
2 57166  98.6105 202.3608 0003139 218.2364 141.8593 14.24044590151493
UmKA 1 (RS40S)
1 57172U 23091G   26146.90572014  .00007174  00000+0  33043-3 0  9998
2 57172  97.5067 205.6877 0012774 186.5611 173.5459 15.20530489160774
CubeBel-2 (EU11S)
1 57175U 23091K   26146.91277471  .00014027  00000+0  50629-3 0  9995
2 57175  97.5067 209.9475 0010241 181.3356 178.7858 15.28567469161052
RS58S MONITOR-3
1 57180U 23091Q   26146.90958473  .00012154  00000+0  45550-3 0  9994
2 57180  97.5100 210.2058 0012380 167.7543 192.4000 15.27340592161046
RS57S MONITOR-4
1 57182U 23091S   26146.95545133  .00011126  00000+0  41602-3 0  9998
2 57182  97.5093 210.2219 0012329 167.8664 192.2874 15.27439130161051
RS-38S
1 57189U 23091Z   26146.90527413  .00017979  00000+0  52668-3 0  9997
2 57189  97.5105 215.9749 0008691 140.8269 219.3604 15.35238558161424
RS27S UTMN-2
1 57203U 23091AP  26146.96051952  .00014058  00000+0  46460-3 0  9998
2 57203  97.5102 213.8956 0009250 147.0485 213.1334 15.31445221161296
METEOR-M2-4
1 59051U 24039A   26146.94012108  .00000005  00000+0  22142-4 0  9991
2 59051  98.7000 106.5068 0006145 225.4153 134.6524 14.22427067116244
